SWARM B                 
1 39451U 13067A   26195.89031585  .00001981  00000+0  69710-4 0  9996
2 39451  87.7459 333.9009 0002307  82.3868 277.7643 15.28715762687470
SWARM A                 
1 39452U 13067B   26195.83051997  .00006355  00000+0  10704-3 0  9998
2 39452  87.3296  45.9625 0003310  93.7207 266.4433 15.51454234710534
SWARM C                 
1 39453U 13067C   26195.83042655  .00006233  00000+0  10497-3 0  9994
2 39453  87.3296  44.5433 0003301  93.8265 266.3374 15.51453337710493
BRITE-CA1 (TORONTO)     
1 40020U 14033L   26195.89478549  .00000520  00000+0  85757-4 0  9996
2 40020  97.9771 324.3173 0078412 187.2199 172.7886 14.72722213646297
OCO 2                   
1 40059U 14035A   26195.82910867  .00000171  00000+0  47941-4 0  9992
2 40059  98.2020 136.7023 0001439  81.3644 278.7718 14.57132084640078
BRITE-PL2 (HEWELIUSZ)   
1 40119U 14049B   26195.88834415  .00000534  00000+0  54623-4 0  9992
2 40119  97.9120 308.1065 0014363  23.2614 336.9253 14.94686767645580
MMS 1                   
1 40482U 15011A   26195.91670139 -.00001497  00000+0  00000+0 0  9995
2 40482  72.4634 348.4292 8301784 168.0295 247.0713  0.28328227  1357
MMS 2                   
1 40483U 15011B   26195.91670139 -.00001498  00000+0  00000+0 0  9997
2 40483  72.4666 348.4281 8304526 168.0302 247.0669  0.28326164  1355
MMS 3                   
1 40484U 15011C   26195.91670139 -.00001496  00000+0  00000+0 0  9996
2 40484  72.4670 348.4401 8302966 168.0401 247.0328  0.28328218  1322
MMS 4                   
1 40485U 15011D   26195.91670139 -.00001497  00000+0  00000+0 0  9998
2 40485  72.4626 348.4235 8302914 168.0499 247.0279  0.28328234  1388
ASTROSAT                
1 40930U 15052A   26195.60591477  .00001128  00000+0  55705-4 0  9998
2 40930   5.9977 317.9923 0007438  64.8495 295.2404 14.82551732583906
DAMPE                   
1 41173U 15078A   26195.94915080  .00000531  00000+0  20411-4 0  9996
2 41173  97.4559 201.5538 0011599 346.3931  13.6995 15.30852275588793
PISAT                   
1 41784U 16059B   26195.93474634  .00000454  00000+0  84898-4 0  9991
2 41784  97.8191 195.1967 0030439 115.6353 244.8003 14.69029444523815
HXMT (HUIYAN)           
1 42758U 17034A   26195.95684964  .00002257  00000+0  11708-3 0  9990
2 42758  43.0154  28.3874 0032320 319.3175  40.5260 15.18687349501887
FLYING LAPTOP           
1 42831U 17042G   26195.98011823  .00002067  00000+0  16449-3 0  9998
2 42831  97.4798 350.4668 0019720  33.1862 327.0595 15.01312390490625
ZHANGHENG 1-01 (CSES-1) 
1 43194U 18015C   26195.96957657  .00003718  00000+0  17241-3 0  9999
2 43194  97.6887   2.1839 0016374 165.6967 194.4734 15.20606306468865
SALSAT                  
1 46495U 20068K   26195.54877328  .00004163  00000+0  14541-3 0  9992
2 46495  97.8856 200.2874 0009148 195.2534 164.8431 15.30166467319545
IXPE                    
1 49954U 21121A   26195.91670139  .00005612  00000+0  27662-3 0  9996
2 49954   0.2293 107.3094 0007164 137.4052 171.6477 15.10487311  5372
SMILE                   
1 69123U 26109A   26190.74998430  .00001173  00000+0  00000+0 0  9991
2 69123  70.0471 206.6613 8323711 287.0422   0.1458  0.47504768    49
